[{"OBJECT_NAME":"HELIOS 1B","OBJECT_ID":"1999-064A","EPOCH":"2026-04-22T05:28:07.904928","MEAN_MOTION":14.87850488,"ECCENTRICITY":4.547e-5,"INCLINATION":98.1654,"RA_OF_ASC_NODE":15.7435,"ARG_OF_PERICENTER":55.1767,"MEAN_ANOMALY":304.9491,"EPHEMERIS_TYPE":0,"CLASSIFICATION_TYPE":"U","NORAD_CAT_ID":25977,"ELEMENT_SET_NO":999,"REV_AT_EPOCH":69173,"BSTAR":0.00012084336,"MEAN_MOTION_DOT":1.046e-5,"MEAN_MOTION_DDOT":0},{"OBJECT_NAME":"TERRA","OBJECT_ID":"1999-068A","EPOCH":"2026-04-22T19:40:36.850080","MEAN_MOTION":14.61057314,"ECCENTRICITY":0.0003353,"INCLINATION":97.9508,"RA_OF_ASC_NODE":164.5486,"ARG_OF_PERICENTER":62.9945,"MEAN_ANOMALY":358.2605,"EPHEMERIS_TYPE":0,"CLASSIFICATION_TYPE":"U","NORAD_CAT_ID":25994,"ELEMENT_SET_NO":999,"REV_AT_EPOCH":40152,"BSTAR":5.8434e-5,"MEAN_MOTION_DOT":2.43e-6,"MEAN_MOTION_DDOT":0},{"OBJECT_NAME":"SL-16 R/B","OBJECT_ID":"2000-006B","EPOCH":"2026-04-22T19:35:22.590816","MEAN_MOTION":14.15828984,"ECCENTRICITY":0.0014669,"INCLINATION":71.0044,"RA_OF_ASC_NODE":5.0536,"ARG_OF_PERICENTER":118.207,"MEAN_ANOMALY":242.0537,"EPHEMERIS_TYPE":0,"CLASSIFICATION_TYPE":"U","NORAD_CAT_ID":26070,"ELEMENT_SET_NO":999,"REV_AT_EPOCH":35480,"BSTAR":0.00010143,"MEAN_MOTION_DOT":1.52e-6,"MEAN_MOTION_DDOT":0},{"OBJECT_NAME":"TITAN 4B R/B","OBJECT_ID":"2000-047B","EPOCH":"2026-04-22T18:03:29.437920","MEAN_MOTION":15.09895009,"ECCENTRICITY":0.0042168,"INCLINATION":67.9883,"RA_OF_ASC_NODE":276.5705,"ARG_OF_PERICENTER":344.976,"MEAN_ANOMALY":15.0133,"EPHEMERIS_TYPE":0,"CLASSIFICATION_TYPE":"U","NORAD_CAT_ID":26474,"ELEMENT_SET_NO":999,"REV_AT_EPOCH":39956,"BSTAR":0.00012363,"MEAN_MOTION_DOT":1.909e-5,"MEAN_MOTION_DDOT":0},{"OBJECT_NAME":"ENVISAT","OBJECT_ID":"2002-009A","EPOCH":"2026-04-22T20:00:20.028960","MEAN_MOTION":14.39050921,"ECCENTRICITY":0.000115,"INCLINATION":98.3794,"RA_OF_ASC_NODE":65.4001,"ARG_OF_PERICENTER":86.2043,"MEAN_ANOMALY":334.6782,"EPHEMERIS_TYPE":0,"CLASSIFICATION_TYPE":"U","NORAD_CAT_ID":27386,"ELEMENT_SET_NO":999,"REV_AT_EPOCH":26552,"BSTAR":3.5905e-5,"MEAN_MOTION_DOT":6.8e-7,"MEAN_MOTION_DDOT":0},{"OBJECT_NAME":"IDEFIX & ARIANE 42P R/B","OBJECT_ID":"2002-021B","EPOCH":"2026-04-22T19:47:27.475584","MEAN_MOTION":14.31053811,"ECCENTRICITY":0.0012905,"INCLINATION":98.5917,"RA_OF_ASC_NODE":50.9175,"ARG_OF_PERICENTER":60.218,"MEAN_ANOMALY":300.0284,"EPHEMERIS_TYPE":0,"CLASSIFICATION_TYPE":"U","NORAD_CAT_ID":27422,"ELEMENT_SET_NO":999,"REV_AT_EPOCH":25033,"BSTAR":8.4616e-5,"MEAN_MOTION_DOT":1.79e-6,"MEAN_MOTION_DDOT":0},{"OBJECT_NAME":"AQUA","OBJECT_ID":"2002-022A","EPOCH":"2026-04-22T21:20:40.474176","MEAN_MOTION":14.62068111,"ECCENTRICITY":0.0001984,"INCLINATION":98.424,"RA_OF_ASC_NODE":81.0844,"ARG_OF_PERICENTER":99.4747,"MEAN_ANOMALY":287.3028,"EPHEMERIS_TYPE":0,"CLASSIFICATION_TYPE":"U","NORAD_CAT_ID":27424,"ELEMENT_SET_NO":999,"REV_AT_EPOCH":27519,"BSTAR":0.00012921,"MEAN_MOTION_DOT":5.99e-6,"MEAN_MOTION_DDOT":0},{"OBJECT_NAME":"CZ-4B R/B","OBJECT_ID":"2002-024C","EPOCH":"2026-04-22T03:22:02.593056","MEAN_MOTION":14.14555023,"ECCENTRICITY":0.00490745,"INCLINATION":98.8752,"RA_OF_ASC_NODE":165.3096,"ARG_OF_PERICENTER":259.3189,"MEAN_ANOMALY":116.5933,"EPHEMERIS_TYPE":0,"CLASSIFICATION_TYPE":"U","NORAD_CAT_ID":27432,"ELEMENT_SET_NO":999,"REV_AT_EPOCH":23538,"BSTAR":2.7987746e-5,"MEAN_MOTION_DOT":9.0e-8,"MEAN_MOTION_DDOT":0},{"OBJECT_NAME":"MIDORI II (ADEOS-II)","OBJECT_ID":"2002-056A","EPOCH":"2026-04-22T15:01:40.350144","MEAN_MOTION":14.29316218,"ECCENTRICITY":6.38e-5,"INCLINATION":98.7837,"RA_OF_ASC_NODE":71.4288,"ARG_OF_PERICENTER":146.4821,"MEAN_ANOMALY":213.64,"EPHEMERIS_TYPE":0,"CLASSIFICATION_TYPE":"U","NORAD_CAT_ID":27597,"ELEMENT_SET_NO":999,"REV_AT_EPOCH":21657,"BSTAR":9.4844e-5,"MEAN_MOTION_DOT":1.96e-6,"MEAN_MOTION_DDOT":0},{"OBJECT_NAME":"H-2A R/B","OBJECT_ID":"2002-056E","EPOCH":"2026-04-22T17:50:11.769792","MEAN_MOTION":14.3379069,"ECCENTRICITY":0.0070926,"INCLINATION":98.3272,"RA_OF_ASC_NODE":71.4527,"ARG_OF_PERICENTER":31.2598,"MEAN_ANOMALY":33.9429,"EPHEMERIS_TYPE":0,"CLASSIFICATION_TYPE":"U","NORAD_CAT_ID":27601,"ELEMENT_SET_NO":999,"REV_AT_EPOCH":22042,"BSTAR":9.3483e-5,"MEAN_MOTION_DOT":2.26e-6,"MEAN_MOTION_DDOT":0},{"OBJECT_NAME":"CZ-4B R/B","OBJECT_ID":"2003-049C","EPOCH":"2026-04-22T17:43:02.276256","MEAN_MOTION":14.55056985,"ECCENTRICITY":0.0049342,"INCLINATION":98.69,"RA_OF_ASC_NODE":109.3823,"ARG_OF_PERICENTER":97.1385,"MEAN_ANOMALY":263.5425,"EPHEMERIS_TYPE":0,"CLASSIFICATION_TYPE":"U","NORAD_CAT_ID":28059,"ELEMENT_SET_NO":999,"REV_AT_EPOCH":19300,"BSTAR":6.6098e-5,"MEAN_MOTION_DOT":2.38e-6,"MEAN_MOTION_DDOT":0},{"OBJECT_NAME":"CZ-2C R/B","OBJECT_ID":"2004-012C","EPOCH":"2026-04-22T17:27:56.177856","MEAN_MOTION":15.69924738,"ECCENTRICITY":0.0013896,"INCLINATION":97.7135,"RA_OF_ASC_NODE":182.3606,"ARG_OF_PERICENTER":146.2957,"MEAN_ANOMALY":213.919,"EPHEMERIS_TYPE":0,"CLASSIFICATION_TYPE":"U","NORAD_CAT_ID":28222,"ELEMENT_SET_NO":999,"REV_AT_EPOCH":21117,"BSTAR":0.00042687,"MEAN_MOTION_DOT":0.00051433,"MEAN_MOTION_DDOT":0},{"OBJECT_NAME":"SL-16 R/B","OBJECT_ID":"2004-021B","EPOCH":"2026-04-22T19:02:58.312608","MEAN_MOTION":14.14605137,"ECCENTRICITY":0.0006755,"INCLINATION":70.9991,"RA_OF_ASC_NODE":139.9402,"ARG_OF_PERICENTER":312.92,"MEAN_ANOMALY":47.1354,"EPHEMERIS_TYPE":0,"CLASSIFICATION_TYPE":"U","NORAD_CAT_ID":28353,"ELEMENT_SET_NO":999,"REV_AT_EPOCH":12907,"BSTAR":-7.3167e-5,"MEAN_MOTION_DOT":-1.88e-6,"MEAN_MOTION_DDOT":0},{"OBJECT_NAME":"CZ-4B R/B","OBJECT_ID":"2004-035C","EPOCH":"2026-04-22T00:35:29.188032","MEAN_MOTION":15.29763339,"ECCENTRICITY":0.00319946,"INCLINATION":97.3426,"RA_OF_ASC_NODE":145.7532,"ARG_OF_PERICENTER":171.5678,"MEAN_ANOMALY":188.6107,"EPHEMERIS_TYPE":0,"CLASSIFICATION_TYPE":"U","NORAD_CAT_ID":28415,"ELEMENT_SET_NO":999,"REV_AT_EPOCH":18653,"BSTAR":0.0002265247,"MEAN_MOTION_DOT":6.554e-5,"MEAN_MOTION_DDOT":0},{"OBJECT_NAME":"CZ-2C R/B","OBJECT_ID":"2004-046B","EPOCH":"2026-04-22T17:30:42.891840","MEAN_MOTION":14.27008897,"ECCENTRICITY":0.0140007,"INCLINATION":98.1969,"RA_OF_ASC_NODE":24.9683,"ARG_OF_PERICENTER":25.1247,"MEAN_ANOMALY":335.6662,"EPHEMERIS_TYPE":0,"CLASSIFICATION_TYPE":"U","NORAD_CAT_ID":28480,"ELEMENT_SET_NO":999,"REV_AT_EPOCH":11478,"BSTAR":5.4535e-5,"MEAN_MOTION_DOT":1.06e-6,"MEAN_MOTION_DDOT":0},{"OBJECT_NAME":"ARIANE 5 R/B","OBJECT_ID":"2004-049H","EPOCH":"2026-04-22T18:11:26.022048","MEAN_MOTION":14.85346594,"ECCENTRICITY":0.0083477,"INCLINATION":98.2686,"RA_OF_ASC_NODE":282.8837,"ARG_OF_PERICENTER":207.4743,"MEAN_ANOMALY":152.2046,"EPHEMERIS_TYPE":0,"CLASSIFICATION_TYPE":"U","NORAD_CAT_ID":28499,"ELEMENT_SET_NO":999,"REV_AT_EPOCH":15233,"BSTAR":7.4877e-5,"MEAN_MOTION_DOT":6.2e-6,"MEAN_MOTION_DDOT":0},{"OBJECT_NAME":"CZ-2D R/B","OBJECT_ID":"2005-024B","EPOCH":"2026-04-22T12:32:48.571296","MEAN_MOTION":15.64088803,"ECCENTRICITY":0.0004274,"INCLINATION":97.3549,"RA_OF_ASC_NODE":129.4044,"ARG_OF_PERICENTER":178.7401,"MEAN_ANOMALY":181.3869,"EPHEMERIS_TYPE":0,"CLASSIFICATION_TYPE":"U","NORAD_CAT_ID":28738,"ELEMENT_SET_NO":999,"REV_AT_EPOCH":14662,"BSTAR":0.00036416,"MEAN_MOTION_DOT":0.00034428,"MEAN_MOTION_DDOT":0}]
