HELIOS 1B               
1 25977U 99064A   26112.22786927  .00001046  00000+0  12084-3 0  9991
2 25977  98.1654  15.7435 0000454  55.1767 304.9491 14.87850488691733
TERRA                   
1 25994U 99068A   26112.81987095  .00000243  00000+0  58434-4 0  9996
2 25994  97.9508 164.5486 0003353  62.9945 358.2605 14.61057314401525
SL-16 R/B               
1 26070U 00006B   26112.81623369  .00000152  00000+0  10143-3 0  9990
2 26070  71.0044   5.0536 0014669 118.2070 242.0537 14.15828984354800
TITAN 4B R/B            
1 26474U 00047B   26112.75242405  .00001909  00000+0  12363-3 0  9991
2 26474  67.9883 276.5705 0042168 344.9760  15.0133 15.09895009399563
ENVISAT                 
1 27386U 02009A   26112.83356515  .00000068  00000+0  35905-4 0  9994
2 27386  98.3794  65.4001 0001150  86.2043 334.6782 14.39050921265521
IDEFIX & ARIANE 42P R/B 
1 27422U 02021B   26112.82462356  .00000179  00000+0  84616-4 0  9995
2 27422  98.5917  50.9175 0012905  60.2180 300.0284 14.31053811250336
AQUA                    
1 27424U 02022A   26112.88935734  .00000599  00000+0  12921-3 0  9994
2 27424  98.4240  81.0844 0001984  99.4747 287.3028 14.62068111275199
CZ-4B R/B               
1 27432U 02024C   26112.14030779  .00000009  00000+0  27988-4 0  9995
2 27432  98.8752 165.3096 0049074 259.3189 116.5933 14.14555023235389
MIDORI II (ADEOS-II)    
1 27597U 02056A   26112.62616146  .00000196  00000+0  94844-4 0  9995
2 27597  98.7837  71.4288 0000638 146.4821 213.6400 14.29316218216571
H-2A R/B                
1 27601U 02056E   26112.74319178  .00000226  00000+0  93483-4 0  9991
2 27601  98.3272  71.4527 0070926  31.2598  33.9429 14.33790690220429
CZ-4B R/B               
1 28059U 03049C   26112.73822079  .00000238  00000+0  66098-4 0  9995
2 28059  98.6900 109.3823 0049342  97.1385 263.5425 14.55056985193007
CZ-2C R/B               
1 28222U 04012C   26112.72773354  .00051433  00000+0  42687-3 0  9998
2 28222  97.7135 182.3606 0013896 146.2957 213.9190 15.69924738211178
SL-16 R/B               
1 28353U 04021B   26112.79373047 -.00000188  00000+0 -73167-4 0  9996
2 28353  70.9991 139.9402 0006755 312.9200  47.1354 14.14605137129071
CZ-4B R/B               
1 28415U 04035C   26112.02464338  .00006554  00000+0  22652-3 0  9993
2 28415  97.3426 145.7532 0031994 171.5678 188.6107 15.29763339186533
CZ-2C R/B               
1 28480U 04046B   26112.72966310  .00000106  00000+0  54535-4 0  9994
2 28480  98.1969  24.9683 0140007  25.1247 335.6662 14.27008897114789
ARIANE 5 R/B            
1 28499U 04049H   26112.75794007  .00000620  00000+0  74877-4 0  9994
2 28499  98.2686 282.8837 0083477 207.4743 152.2046 14.85346594152330
CZ-2D R/B               
1 28738U 05024B   26112.52278439  .00034428  00000+0  36416-3 0  9994
2 28738  97.3549 129.4044 0004274 178.7401 181.3869 15.64088803146624
